ONEWEB-0153             
1 48044U 21025C   23361.46139590  .00000387  00000+0  10251-2 0  9990
2 48044  87.8993 139.8841 0001663 104.1291 256.0023 13.13469699135046
ONEWEB-0154             
1 48045U 21025D   23361.45821100  .00000369  00000+0  97665-3 0  9990
2 48045  87.9000 139.9003 0001608 106.6282 253.5023 13.13470624135002
ONEWEB-0116             
1 48046U 21025E   23361.42328567 -.00000340  00000+0 -96693-3 0  9998
2 48046  87.8992 139.8711 0001377 109.0907 251.0371 13.13474003135140
ONEWEB-0150             
1 48047U 21025F   23361.47407816  .00000081  00000+0  18793-3 0  9994
2 48047  87.8998 139.8896 0001537  95.2969 264.8335 13.13467457135049
ONEWEB-0107             
1 48048U 21025G   23361.47566902  .00000095  00000+0  22647-3 0  9995
2 48048  87.8997 139.8872 0001665  91.5501 268.5818 13.13470319135022
ONEWEB-0101             
1 48049U 21025H   23361.43916648  .00000031  00000+0  51003-4 0  9997
2 48049  87.8993 139.9014 0001695 104.8364 255.2953 13.13471885134993
ONEWEB-0113             
1 48050U 21025J   23361.41694550 -.00000296  00000+0 -84682-3 0  9995
2 48050  87.9001 139.8881 0001392 107.4790 252.6491 13.13469616135070
ONEWEB-0112             
1 48051U 21025K   23361.40424312 -.00000004  00000+0 -47043-4 0  9990
2 48051  87.8997 139.8994 0001449  99.3376 260.7917 13.13468037135081
